OBJECT_NAME,OBJECT_ID,EPOCH,MEAN_MOTION,ECCENTRICITY,INCLINATION,RA_OF_ASC_NODE,ARG_OF_PERICENTER,MEAN_ANOMALY,EPHEMERIS_TYPE,CLASSIFICATION_TYPE,NORAD_CAT_ID,ELEMENT_SET_NO,REV_AT_EPOCH,BSTAR,MEAN_MOTION_DOT,MEAN_MOTION_DDOT
LEMUR-2-STARLIGHT,2025-276DY,2026-06-17T02:28:42.611808,14.99040378,.001517,97.5267,238.7459,128.2634,231.9956,0,U,66783,999,3018,.32554E-3,.3901E-4,0
LEMUR-2-TARTIFLETTE,2025-276DZ,2026-06-17T02:26:31.154208,14.99069450,.0014114,97.5268,238.7500,134.7239,225.5136,0,U,66784,999,3018,.30453E-3,.3647E-4,0
LEMUR-2-VUKASIN,2025-276EA,2026-06-16T10:17:07.576224,15.00361961,.00061779,97.5310,238.3939,125.5082,234.6719,0,U,66785,999,3003,.38946927E-3,.4834E-4,0
LEMUR-2-HOTSPUR-TOM,2025-276EB,2026-06-16T16:39:03.017088,14.98957438,.0015522,97.5264,238.3374,129.3420,230.9182,0,U,66786,999,3005,.41682E-3,.5001E-4,0
LEMUR-2-MYRA,2025-276EC,2026-06-16T22:14:40.762752,15.00243237,.0016567,97.5217,238.8164,142.2560,217.9829,0,U,66787,999,3017,.54761E-3,.6818E-4,0
LEMUR-2 FIKRETDENGIZ,2026-004A,2026-06-17T04:50:13.941600,14.88324447,.0010116,97.8013,166.7594,133.0212,227.1854,0,U,67363,999,2328,.36884E-3,.3361E-4,0
TWILIGHT-1 OBJECT B,2026-004B,2026-06-16T22:58:02.684064,14.87701698,.0009934,97.8061,166.5337,125.0302,235.1847,0,U,67364,999,2325,.17619E-3,.1552E-4,0
LEMUR-2-MARIO-SOUSA,2026-004C,2026-06-16T23:36:14.172768,14.88512280,.0009644,97.7985,166.5410,134.2665,225.9345,0,U,67365,999,2326,.35794E-3,.3275E-4,0
LEMUR-2-SONNENBLUME,2026-004E,2026-06-16T23:33:52.907040,14.88315149,.0009158,97.7981,166.5239,135.7591,224.4359,0,U,67367,999,2326,.22261E-3,.2006E-4,0
LEMUR-2-WOBLER,2026-004F,2026-06-16T23:24:32.636736,14.88515882,.0009565,97.8037,166.6396,126.1720,234.0383,0,U,67368,999,2326,.29756E-3,.2713E-4,0
LEMUR-2-GRAM-E-SUE,2026-004H,2026-06-16T23:11:04.050240,14.88470572,.000817,97.7969,166.5235,136.2938,223.8927,0,U,67370,999,2326,.19156E-3,.1725E-4,0
LEMUR-2-KATIE,2026-004AA,2026-06-16T22:53:04.871904,14.90048007,.0004864,97.8033,166.9697,93.5324,266.6450,0,U,67387,999,2327,.32781E-3,.311E-4,0
LEMUR-2-HCS-BAZUS,2026-004AB,2026-06-16T22:51:44.017056,14.90069816,.0004438,97.8020,166.9496,90.4744,269.6982,0,U,67388,999,2327,.50324E-3,.4808E-4,0
