LEMUR-2-STARLIGHT       
1 66783U 25276DY  26168.10327097  .00003901  00000+0  32554-3 0  9998
2 66783  97.5267 238.7459 0015170 128.2634 231.9956 14.99040378 30188
LEMUR-2-TARTIFLETTE     
1 66784U 25276DZ  26168.10174947  .00003647  00000+0  30453-3 0  9996
2 66784  97.5268 238.7500 0014114 134.7239 225.5136 14.99069450 30188
LEMUR-2-VUKASIN         
1 66785U 25276EA  26167.42855991  .00004834  00000+0  38947-3 0  9991
2 66785  97.5310 238.3939 0006177 125.5082 234.6719 15.00361961 30030
LEMUR-2-HOTSPUR-TOM     
1 66786U 25276EB  26167.69378492  .00005001  00000+0  41682-3 0  9994
2 66786  97.5264 238.3374 0015522 129.3420 230.9182 14.98957438 30055
LEMUR-2-MYRA            
1 66787U 25276EC  26167.92686068  .00006818  00000+0  54761-3 0  9991
2 66787  97.5217 238.8164 0016567 142.2560 217.9829 15.00243237 30170
LEMUR-2 FIKRETDENGIZ    
1 67363U 26004A   26168.20155025  .00003361  00000+0  36884-3 0  9994
2 67363  97.8013 166.7594 0010116 133.0212 227.1854 14.88324447 23283
TWILIGHT-1 OBJECT B     
1 67364U 26004B   26167.95697551  .00001552  00000+0  17619-3 0  9996
2 67364  97.8061 166.5337 0009934 125.0302 235.1847 14.87701698 23251
LEMUR-2-MARIO-SOUSA     
1 67365U 26004C   26167.98349737  .00003275  00000+0  35794-3 0  9998
2 67365  97.7985 166.5410 0009644 134.2665 225.9345 14.88512280 23269
LEMUR-2-SONNENBLUME     
1 67367U 26004E   26167.98186235  .00002006  00000+0  22261-3 0  9998
2 67367  97.7981 166.5239 0009158 135.7591 224.4359 14.88315149 23264
LEMUR-2-WOBLER          
1 67368U 26004F   26167.97537774  .00002713  00000+0  29756-3 0  9997
2 67368  97.8037 166.6396 0009565 126.1720 234.0383 14.88515882 23263
LEMUR-2-GRAM-E-SUE      
1 67370U 26004H   26167.96601910  .00001725  00000+0  19156-3 0  9998
2 67370  97.7969 166.5235 0008170 136.2938 223.8927 14.88470572 23260
LEMUR-2-KATIE           
1 67387U 26004AA  26167.95352861  .00003110  00000+0  32781-3 0  9992
2 67387  97.8033 166.9697 0004864  93.5324 266.6450 14.90048007 23271
LEMUR-2-HCS-BAZUS       
1 67388U 26004AB  26167.95259279  .00004808  00000+0  50324-3 0  9990
2 67388  97.8020 166.9496 0004438  90.4744 269.6982 14.90069816 23278
